SL-16 R/B               
1 25407U 98045B   26087.85595799 -.00000243  00000+0 -98687-4 0  9996
2 25407  71.0101 141.2705 0007985 338.5511  21.5277 14.16193985429810
ISS (ZARYA)             
1 25544U 98067A   26087.87455012  .00011057  00000+0  21128-3 0  9995
2 25544  51.6344 337.5169 0006219 244.1555 115.8792 15.48616916559305
CZ-4B R/B               
1 25732U 99025C   26087.72266524  .00000045  00000+0  42635-4 0  9993
2 25732  98.6587 131.5501 0036028 290.6776 177.2668 14.18268966390860
OKEAN-O                 
1 25860U 99039A   26087.71311286  .00000685  00000+0  96563-4 0  9994
2 25860  97.9403 147.4076 0000873  92.3458 267.7854 14.80365129437207
SL-16 R/B               
1 25861U 99039B   26087.87768919  .00000639  00000+0  87727-4 0  9992
2 25861  97.9925 146.9418 0014558 190.0686 170.0237 14.81757207439706
DELTA 2 R/B             
1 25876U 99041E   26087.76774662  .00000904  00000+0  18483-3 0  9998
2 25876  51.7606 225.0687 0502659  44.6952 319.3368 14.11879897365723
HELIOS 1B               
1 25977U 99064A   26087.74763596  .00001764  00000+0  19974-3 0  9998
2 25977  98.1674 350.5493 0001823  48.5256 311.6116 14.87769952688098
TERRA                   
1 25994U 99068A   26087.91249459  .00000468  00000+0  10448-3 0  9994
2 25994  97.9552 140.6090 0003573 111.4332  60.9426 14.61034686397882
SL-16 R/B               
1 26070U 00006B   26087.66443787  .00000326  00000+0  18998-3 0  9997
2 26070  71.0021  57.9359 0015731 160.1268 200.0472 14.15827091351245
TITAN 4B R/B            
1 26474U 00047B   26087.84394176  .00004351  00000+0  27236-3 0  9994
2 26474  67.9914 346.6441 0039840  12.9542 347.2621 15.09737464395802
ENVISAT                 
1 27386U 02009A   26087.86169519  .00000121  00000+0  53150-4 0  9996
2 27386  98.3758  41.0062 0001214  81.5597 285.6451 14.39043458261937
IDEFIX & ARIANE 42P R/B 
1 27422U 02021B   26087.79368594  .00000285  00000+0  12492-3 0  9991
2 27422  98.5891  26.1741 0012580 127.6571 232.5756 14.31038780246754
